[{"OBJECT_NAME":"STARLINK-34979","OBJECT_ID":"2025-179V","EPOCH":"2026-03-09T16:26:15.786816","MEAN_MOTION":15.05648512,"ECCENTRICITY":8.763e-5,"INCLINATION":97.6021,"RA_OF_ASC_NODE":112.898,"ARG_OF_PERICENTER":165.1317,"MEAN_ANOMALY":194.9936,"EPHEMERIS_TYPE":0,"CLASSIFICATION_TYPE":"U","NORAD_CAT_ID":65254,"ELEMENT_SET_NO":999,"REV_AT_EPOCH":3181,"BSTAR":5.3922991e-5,"MEAN_MOTION_DOT":7.17e-6,"MEAN_MOTION_DDOT":0},{"OBJECT_NAME":"CZ-6A DEB","OBJECT_ID":"2024-140YT","EPOCH":"2026-03-09T15:08:50.355168","MEAN_MOTION":14.80324244,"ECCENTRICITY":0.0130576,"INCLINATION":89.1165,"RA_OF_ASC_NODE":289.1796,"ARG_OF_PERICENTER":182.674,"MEAN_ANOMALY":177.3803,"EPHEMERIS_TYPE":0,"CLASSIFICATION_TYPE":"U","NORAD_CAT_ID":61426,"ELEMENT_SET_NO":999,"REV_AT_EPOCH":8306,"BSTAR":0.0013152,"MEAN_MOTION_DOT":0.00011629,"MEAN_MOTION_DDOT":0}]
